[{"OBJECT_NAME":"STARLINK-2104","OBJECT_ID":"2021-005AM","EPOCH":"2026-03-09T21:54:21.353760","MEAN_MOTION":15.06426617,"ECCENTRICITY":0.00013635,"INCLINATION":53.0579,"RA_OF_ASC_NODE":30.8657,"ARG_OF_PERICENTER":64.8855,"MEAN_ANOMALY":295.2275,"EPHEMERIS_TYPE":0,"CLASSIFICATION_TYPE":"U","NORAD_CAT_ID":47384,"ELEMENT_SET_NO":999,"REV_AT_EPOCH":28349,"BSTAR":0.00031171909,"MEAN_MOTION_DOT":4.368e-5,"MEAN_MOTION_DDOT":0},{"OBJECT_NAME":"COSMOS 1238","OBJECT_ID":"1981-003A","EPOCH":"2026-03-09T22:03:18.626112","MEAN_MOTION":14.12425394,"ECCENTRICITY":0.06407052,"INCLINATION":82.9572,"RA_OF_ASC_NODE":297.0051,"ARG_OF_PERICENTER":13.743,"MEAN_ANOMALY":348.0299,"EPHEMERIS_TYPE":0,"CLASSIFICATION_TYPE":"U","NORAD_CAT_ID":12138,"ELEMENT_SET_NO":999,"REV_AT_EPOCH":25589,"BSTAR":0.00028175975,"MEAN_MOTION_DOT":4.214e-5,"MEAN_MOTION_DDOT":0}]
